[{"OBJECT_NAME":"OBJECT A","OBJECT_ID":"2024-094A","EPOCH":"2026-03-07T00:47:02.877216","MEAN_MOTION":15.17421746,"ECCENTRICITY":0.00076871,"INCLINATION":97.396,"RA_OF_ASC_NODE":139.425,"ARG_OF_PERICENTER":177.7286,"MEAN_ANOMALY":182.3984,"EPHEMERIS_TYPE":0,"CLASSIFICATION_TYPE":"U","NORAD_CAT_ID":59805,"ELEMENT_SET_NO":999,"REV_AT_EPOCH":9968,"BSTAR":1.8416853e-5,"MEAN_MOTION_DOT":3.03e-6,"MEAN_MOTION_DDOT":0},{"OBJECT_NAME":"LEMUR-2-KREMPEL-BRO2","OBJECT_ID":"2025-061C","EPOCH":"2026-03-09T20:43:52.091904","MEAN_MOTION":15.13192951,"ECCENTRICITY":0.00179248,"INCLINATION":97.5616,"RA_OF_ASC_NODE":45.5365,"ARG_OF_PERICENTER":236.8576,"MEAN_ANOMALY":123.0936,"EPHEMERIS_TYPE":0,"CLASSIFICATION_TYPE":"U","NORAD_CAT_ID":63353,"ELEMENT_SET_NO":999,"REV_AT_EPOCH":5258,"BSTAR":0.00044346981,"MEAN_MOTION_DOT":7.837e-5,"MEAN_MOTION_DDOT":0}]
