2024-094A               
1 59805U 24094A   26066.03267219  .00000303  00000+0  18417-4 0  9996
2 59805  97.3960 139.4250 0007687 177.7286 182.3984 15.17421746 99688
LEMUR-2-KREMPEL-BRO2    
1 63353U 25061C   26068.86379735  .00007837  00000+0  44347-3 0  9993
2 63353  97.5616  45.5365 0017925 236.8576 123.0936 15.13192951 52586
